{"type": "FeatureCollection", "features": [ {"type": "Feature", "properties": {"norad_id": 66664, "name": "SOYUZ-MS 28", "group": "last-30-days", "lat": -6.272329790160706, "lon": -11.910006666056663, "alt_km": 417.97537733563786, "timestamp": "2025-12-08T13:49:30.578237+00:00", "meta": {"OBJECT_NAME": "SOYUZ-MS 28", "OBJECT_ID": "2025-275A", "EPOCH": "2025-12-08T05:16:39.559584", "MEAN_MOTION": 15.49412336, "ECCENTRICITY": 0.00034318, "INCLINATION": 51.6305, "RA_OF_ASC_NODE": 164.8582, "ARG_OF_PERICENTER": 219.3069, "MEAN_ANOMALY": 140.7671, "EPHEMERIS_TYPE": 0, "CLASSIFICATION_TYPE": "U", "NORAD_CAT_ID": 66664, "ELEMENT_SET_NO": 999, "REV_AT_EPOCH": 128, "BSTAR": 0.00022082399, "MEAN_MOTION_DOT": 0.00011911, "MEAN_MOTION_DDOT": 0}, "tle": {"line1": "1 66664U 25275A   25342.21990231  .00011911  00000+0  22082-3 0  9991", "line2": "2 66664  51.6305 164.8582 0003431 219.3069 140.7671 15.49412336  1280"}}, "geometry": {"type": "Point", "coordinates": [-11.910006666056663, -6.272329790160706]}}, {"type": "Feature", "properties": {"norad_id": 66820, "name": "KOMPSAT-7", "group": "last-30-days", "lat": -35.36850785724474, "lon": 103.0592517960567, "alt_km": 572.1092978324441, "timestamp": "2025-12-08T13:49:30.578248+00:00", "meta": {"OBJECT_NAME": "KOMPSAT-7", "OBJECT_ID": "2025-279A", "EPOCH": "2025-12-08T06:27:15.034464", "MEAN_MOTION": 14.98366545, "ECCENTRICITY": 0.00094353, "INCLINATION": 97.6399, "RA_OF_ASC_NODE": 288.226, "ARG_OF_PERICENTER": 236.9817, "MEAN_ANOMALY": 123.05, "EPHEMERIS_TYPE": 0, "CLASSIFICATION_TYPE": "U", "NORAD_CAT_ID": 66820, "ELEMENT_SET_NO": 999, "REV_AT_EPOCH": 98, "BSTAR": 0.00036343676, "MEAN_MOTION_DOT": 4.278e-05, "MEAN_MOTION_DDOT": 0}, "tle": {"line1": "1 66820U 25279A   25342.26892401  .00004278  00000+0  36344-3 0  9998", "line2": "2 66820  97.6399 288.2260 0009435 236.9817 123.0500 14.98366545   981"}}, "geometry": {"type": "Point", "coordinates": [103.0592517960567, -35.36850785724474]}}, {"type": "Feature", "properties": {"norad_id": 66877, "name": "ZQ-3 R/B", "group": "last-30-days", "lat": 50.1999446482638, "lon": -157.8929796362085, "alt_km": 770.9055110455256, "timestamp": "2025-12-08T13:49:30.578258+00:00", "meta": {"OBJECT_NAME": "ZQ-3 R/B", "OBJECT_ID": "2025-282A", "EPOCH": "2025-12-08T06:36:31.176576", "MEAN_MOTION": 14.47841574, "ECCENTRICITY": 0.08275877, "INCLINATION": 56.9548, "RA_OF_ASC_NODE": 74.6198, "ARG_OF_PERICENTER": 212.298, "MEAN_ANOMALY": 142.4714, "EPHEMERIS_TYPE": 0, "CLASSIFICATION_TYPE": "U", "NORAD_CAT_ID": 66877, "ELEMENT_SET_NO": 999, "REV_AT_EPOCH": 74, "BSTAR": 0.00025872655, "MEAN_MOTION_DOT": 0.01210775, "MEAN_MOTION_DDOT": 7.293187e-06}, "tle": {"line1": "1 66877U 25282A   25342.27536084  .01210775  72932-5  25873-3 0  9993", "line2": "2 66877  56.9548  74.6198 0827587 212.2980 142.4714 14.47841574   748"}}, "geometry": {"type": "Point", "coordinates": [-157.8929796362085, 50.1999446482638]}}, {"type": "Feature", "properties": {"norad_id": 66906, "name": "1998-067XS", "group": "last-30-days", "lat": -18.40333178750175, "lon": -1.654234587988708, "alt_km": 416.1337246801986, "timestamp": "2025-12-08T13:49:30.578270+00:00", "meta": {"OBJECT_NAME": "1998-067XS", "OBJECT_ID": "1998-067XS", "EPOCH": "2025-12-07T18:23:05.277120", "MEAN_MOTION": 15.50202047, "ECCENTRICITY": 0.00041027, "INCLINATION": 51.6298, "RA_OF_ASC_NODE": 167.0779, "ARG_OF_PERICENTER": 180.8323, "MEAN_ANOMALY": 179.266, "EPHEMERIS_TYPE": 0, "CLASSIFICATION_TYPE": "U", "NORAD_CAT_ID": 66906, "ELEMENT_SET_NO": 999, "REV_AT_EPOCH": 84, "BSTAR": 0.00058960248, "MEAN_MOTION_DOT": 0.00033584, "MEAN_MOTION_DDOT": 0}, "tle": {"line1": "1 66906U 98067XS  25341.76603330  .00033584  00000+0  58960-3 0  9993", "line2": "2 66906  51.6298 167.0779 0004102 180.8323 179.2660 15.50202047   848"}}, "geometry": {"type": "Point", "coordinates": [-1.654234587988708, -18.40333178750175]}}, {"type": "Feature", "properties": {"norad_id": 66907, "name": "1998-067XT", "group": "last-30-days", "lat": -22.255947015138798, "lon": 1.9709312784253055, "alt_km": 414.34104928938086, "timestamp": "2025-12-08T13:49:30.578283+00:00", "meta": {"OBJECT_NAME": "1998-067XT", "OBJECT_ID": "1998-067XT", "EPOCH": "2025-12-08T05:11:42.536256", "MEAN_MOTION": 15.50682978, "ECCENTRICITY": 0.00049888, "INCLINATION": 51.63, "RA_OF_ASC_NODE": 164.8361, "ARG_OF_PERICENTER": 200.9093, "MEAN_ANOMALY": 159.1692, "EPHEMERIS_TYPE": 0, "CLASSIFICATION_TYPE": "U", "NORAD_CAT_ID": 66907, "ELEMENT_SET_NO": 999, "REV_AT_EPOCH": 91, "BSTAR": 0.0010938546, "MEAN_MOTION_DOT": 0.00064041, "MEAN_MOTION_DDOT": 0}, "tle": {"line1": "1 66907U 98067XT  25342.21646454  .00064041  00000+0  10939-2 0  9994", "line2": "2 66907  51.6300 164.8361 0004988 200.9093 159.1692 15.50682978   910"}}, "geometry": {"type": "Point", "coordinates": [1.9709312784253055, -22.255947015138798]}}, {"type": "Feature", "properties": {"norad_id": 66908, "name": "1998-067XU", "group": "last-30-days", "lat": -22.992749772422982, "lon": 2.6952131188374615, "alt_km": 414.17906762153234, "timestamp": "2025-12-08T13:49:30.578312+00:00", "meta": {"OBJECT_NAME": "1998-067XU", "OBJECT_ID": "1998-067XU", "EPOCH": "2025-12-08T05:11:27.913056", "MEAN_MOTION": 15.50722225, "ECCENTRICITY": 0.00051815, "INCLINATION": 51.6294, "RA_OF_ASC_NODE": 164.835, "ARG_OF_PERICENTER": 200.0126, "MEAN_ANOMALY": 160.0661, "EPHEMERIS_TYPE": 0, "CLASSIFICATION_TYPE": "U", "NORAD_CAT_ID": 66908, "ELEMENT_SET_NO": 999, "REV_AT_EPOCH": 91, "BSTAR": 0.001021887, "MEAN_MOTION_DOT": 0.00059851, "MEAN_MOTION_DDOT": 0}, "tle": {"line1": "1 66908U 98067XU  25342.21629529  .00059851  00000+0  10219-2 0  9993", "line2": "2 66908  51.6294 164.8350 0005181 200.0126 160.0661 15.50722225   912"}}, "geometry": {"type": "Point", "coordinates": [2.6952131188374615, -22.992749772422982]}}, {"type": "Feature", "properties": {"norad_id": 66909, "name": "SILVERSAT", "group": "last-30-days", "lat": -23.463036058730985, "lon": 3.161538026952358, "alt_km": 413.9479086350575, "timestamp": "2025-12-08T13:49:30.578323+00:00", "meta": {"OBJECT_NAME": "SILVERSAT", "OBJECT_ID": "1998-067XV", "EPOCH": "2025-12-07T19:54:33.887232", "MEAN_MOTION": 15.50747382, "ECCENTRICITY": 0.00050921, "INCLINATION": 51.6296, "RA_OF_ASC_NODE": 166.752, "ARG_OF_PERICENTER": 199.8533, "MEAN_ANOMALY": 160.2258, "EPHEMERIS_TYPE": 0, "CLASSIFICATION_TYPE": "U", "NORAD_CAT_ID": 66909, "ELEMENT_SET_NO": 999, "REV_AT_EPOCH": 85, "BSTAR": 0.0014852493, "MEAN_MOTION_DOT": 0.00087585, "MEAN_MOTION_DDOT": 0}, "tle": {"line1": "1 66909U 98067XV  25341.82955888  .00087585  00000+0  14852-2 0  9992", "line2": "2 66909  51.6296 166.7520 0005092 199.8533 160.2258 15.50747382   851"}}, "geometry": {"type": "Point", "coordinates": [3.161538026952358, -23.463036058730985]}}, {"type": "Feature", "properties": {"norad_id": 66910, "name": "1998-067XW", "group": "last-30-days", "lat": -27.655872043127335, "lon": 7.566682432288582, "alt_km": 413.57848351939447, "timestamp": "2025-12-08T13:49:30.578333+00:00", "meta": {"OBJECT_NAME": "1998-067XW", "OBJECT_ID": "1998-067XW", "EPOCH": "2025-12-07T21:26:00.150720", "MEAN_MOTION": 15.50969965, "ECCENTRICITY": 0.00060372, "INCLINATION": 51.6295, "RA_OF_ASC_NODE": 166.4259, "ARG_OF_PERICENTER": 184.7367, "MEAN_ANOMALY": 175.3566, "EPHEMERIS_TYPE": 0, "CLASSIFICATION_TYPE": "U", "NORAD_CAT_ID": 66910, "ELEMENT_SET_NO": 999, "REV_AT_EPOCH": 86, "BSTAR": 0.0010283643, "MEAN_MOTION_DOT": 0.00060787, "MEAN_MOTION_DDOT": 0}, "tle": {"line1": "1 66910U 98067XW  25341.89305730  .00060787  00000+0  10284-2 0  9996", "line2": "2 66910  51.6295 166.4259 0006037 184.7367 175.3566 15.50969965   869"}}, "geometry": {"type": "Point", "coordinates": [7.566682432288582, -27.655872043127335]}}, {"type": "Feature", "properties": {"norad_id": 66911, "name": "1998-067XX", "group": "last-30-days", "lat": -28.522634097709332, "lon": 8.538419539983636, "alt_km": 413.3323833710092, "timestamp": "2025-12-08T13:49:30.578348+00:00", "meta": {"OBJECT_NAME": "1998-067XX", "OBJECT_ID": "1998-067XX", "EPOCH": "2025-12-07T22:58:32.522304", "MEAN_MOTION": 15.51093228, "ECCENTRICITY": 0.00059306, "INCLINATION": 51.6292, "RA_OF_ASC_NODE": 166.1051, "ARG_OF_PERICENTER": 185.6814, "MEAN_ANOMALY": 174.4109, "EPHEMERIS_TYPE": 0, "CLASSIFICATION_TYPE": "U", "NORAD_CAT_ID": 66911, "ELEMENT_SET_NO": 999, "REV_AT_EPOCH": 86, "BSTAR": 0.0012532777, "MEAN_MOTION_DOT": 0.00074641, "MEAN_MOTION_DDOT": 0}, "tle": {"line1": "1 66911U 98067XX  25341.95732086  .00074641  00000+0  12533-2 0  9995", "line2": "2 66911  51.6292 166.1051 0005930 185.6814 174.4109 15.51093228   866"}}, "geometry": {"type": "Point", "coordinates": [8.538419539983636, -28.522634097709332]}}, {"type": "Feature", "properties": {"norad_id": 66912, "name": "1998-067XY", "group": "last-30-days", "lat": -20.889178137609445, "lon": 0.6550870683539824, "alt_km": 414.62179434138216, "timestamp": "2025-12-08T13:49:30.578358+00:00", "meta": {"OBJECT_NAME": "1998-067XY", "OBJECT_ID": "1998-067XY", "EPOCH": "2025-12-07T23:00:53.074368", "MEAN_MOTION": 15.50498763, "ECCENTRICITY": 0.00051226, "INCLINATION": 51.6298, "RA_OF_ASC_NODE": 166.116, "ARG_OF_PERICENTER": 198.5004, "MEAN_ANOMALY": 161.58, "EPHEMERIS_TYPE": 0, "CLASSIFICATION_TYPE": "U", "NORAD_CAT_ID": 66912, "ELEMENT_SET_NO": 999, "REV_AT_EPOCH": 86, "BSTAR": 0.00089233743, "MEAN_MOTION_DOT": 0.00051735, "MEAN_MOTION_DDOT": 0}, "tle": {"line1": "1 66912U 98067XY  25341.95894762  .00051735  00000+0  89234-3 0  9998", "line2": "2 66912  51.6298 166.1160 0005122 198.5004 161.5800 15.50498763   868"}}, "geometry": {"type": "Point", "coordinates": [0.6550870683539824, -20.889178137609445]}}]}